[{"OBJECT_NAME":"STARLINK-30275","OBJECT_ID":"2023-124E","EPOCH":"2026-03-09T16:54:18.753408","MEAN_MOTION":15.30184111,"ECCENTRICITY":9.287e-5,"INCLINATION":53.1604,"RA_OF_ASC_NODE":207.0027,"ARG_OF_PERICENTER":81.4136,"MEAN_ANOMALY":278.697,"EPHEMERIS_TYPE":0,"CLASSIFICATION_TYPE":"U","NORAD_CAT_ID":57667,"ELEMENT_SET_NO":999,"REV_AT_EPOCH":14356,"BSTAR":0.00012225249,"MEAN_MOTION_DOT":3.262e-5,"MEAN_MOTION_DDOT":0},{"OBJECT_NAME":"OBJECT M","OBJECT_ID":"2025-155M","EPOCH":"2026-03-09T22:37:12.666144","MEAN_MOTION":15.33288683,"ECCENTRICITY":0.00088001,"INCLINATION":97.4429,"RA_OF_ASC_NODE":38.1052,"ARG_OF_PERICENTER":139.1253,"MEAN_ANOMALY":221.0651,"EPHEMERIS_TYPE":0,"CLASSIFICATION_TYPE":"U","NORAD_CAT_ID":64887,"ELEMENT_SET_NO":999,"REV_AT_EPOCH":6565,"BSTAR":0.00087834095,"MEAN_MOTION_DOT":0.00028279,"MEAN_MOTION_DDOT":0}]
